STARLINK-1482
1 45773U 20038AV  26092.24841703  .00096275  00000+0  30396-2 0  9998
2 45773  53.1590  81.4702 0002907  86.4717 273.6617 15.32062306320458
